[{"OBJECT_NAME":"STARLINK-1270","OBJECT_ID":"2020-012BM","EPOCH":"2025-12-04T12:09:08.169120","MEAN_MOTION":15.06399791,"ECCENTRICITY":0.0001413,"INCLINATION":53.0544,"RA_OF_ASC_NODE":73.91,"ARG_OF_PERICENTER":91.6039,"MEAN_ANOMALY":268.5112,"EPHEMERIS_TYPE":0,"CLASSIFICATION_TYPE":"U","NORAD_CAT_ID":45237,"ELEMENT_SET_NO":999,"REV_AT_EPOCH":32105,"BSTAR":0.00015636,"MEAN_MOTION_DOT":2.048e-5,"MEAN_MOTION_DDOT":0},{"OBJECT_NAME":"STARLINK-1279","OBJECT_ID":"2020-019A","EPOCH":"2025-12-04T15:46:04.748160","MEAN_MOTION":15.39651351,"ECCENTRICITY":0.0009616,"INCLINATION":53.0497,"RA_OF_ASC_NODE":193.3142,"ARG_OF_PERICENTER":121.3343,"MEAN_ANOMALY":238.8603,"EPHEMERIS_TYPE":0,"CLASSIFICATION_TYPE":"U","NORAD_CAT_ID":45360,"ELEMENT_SET_NO":999,"REV_AT_EPOCH":31595,"BSTAR":0.00286,"MEAN_MOTION_DOT":0.00116035,"MEAN_MOTION_DDOT":0},{"OBJECT_NAME":"STARLINK-1301","OBJECT_ID":"2020-019B","EPOCH":"2025-12-04T16:36:20.732832","MEAN_MOTION":15.42439444,"ECCENTRICITY":0.0009007,"INCLINATION":53.0493,"RA_OF_ASC_NODE":202.237,"ARG_OF_PERICENTER":116.2114,"MEAN_ANOMALY":243.9817,"EPHEMERIS_TYPE":0,"CLASSIFICATION_TYPE":"U","NORAD_CAT_ID":45361,"ELEMENT_SET_NO":999,"REV_AT_EPOCH":31584,"BSTAR":0.0028657,"MEAN_MOTION_DOT":0.00127739,"MEAN_MOTION_DDOT":0},{"OBJECT_NAME":"STARLINK-1306","OBJECT_ID":"2020-019C","EPOCH":"2025-12-04T18:00:02.000160","MEAN_MOTION":15.83684958,"ECCENTRICITY":0.0003823,"INCLINATION":53.0388,"RA_OF_ASC_NODE":182.99,"ARG_OF_PERICENTER":88.6029,"MEAN_ANOMALY":184.9882,"EPHEMERIS_TYPE":0,"CLASSIFICATION_TYPE":"U","NORAD_CAT_ID":45362,"ELEMENT_SET_NO":999,"REV_AT_EPOCH":601,"BSTAR":0.00087587,"MEAN_MOTION_DOT":0.00201136,"MEAN_MOTION_DDOT":0},{"OBJECT_NAME":"STARLINK-1262","OBJECT_ID":"2020-019G","EPOCH":"2025-12-04T10:01:45.372000","MEAN_MOTION":15.06415373,"ECCENTRICITY":0.0001588,"INCLINATION":53.054,"RA_OF_ASC_NODE":234.3084,"ARG_OF_PERICENTER":92.2402,"MEAN_ANOMALY":267.8769,"EPHEMERIS_TYPE":0,"CLASSIFICATION_TYPE":"U","NORAD_CAT_ID":45366,"ELEMENT_SET_NO":999,"REV_AT_EPOCH":31537,"BSTAR":0.00044595,"MEAN_MOTION_DOT":6.37e-5,"MEAN_MOTION_DDOT":0},{"OBJECT_NAME":"STARLINK-1273","OBJECT_ID":"2020-019H","EPOCH":"2025-12-04T16:55:46.244640","MEAN_MOTION":15.06415207,"ECCENTRICITY":0.0002543,"INCLINATION":53.0527,"RA_OF_ASC_NODE":233.0169,"ARG_OF_PERICENTER":79.7279,"MEAN_ANOMALY":280.3997,"EPHEMERIS_TYPE":0,"CLASSIFICATION_TYPE":"U","NORAD_CAT_ID":45367,"ELEMENT_SET_NO":999,"REV_AT_EPOCH":31541,"BSTAR":0.00071169,"MEAN_MOTION_DOT":0.00010339,"MEAN_MOTION_DDOT":0},{"OBJECT_NAME":"STARLINK-1276","OBJECT_ID":"2020-019J","EPOCH":"2025-12-04T09:51:08.909856","MEAN_MOTION":15.06414998,"ECCENTRICITY":0.0001151,"INCLINATION":53.0537,"RA_OF_ASC_NODE":234.3448,"ARG_OF_PERICENTER":83.9298,"MEAN_ANOMALY":276.1822,"EPHEMERIS_TYPE":0,"CLASSIFICATION_TYPE":"U","NORAD_CAT_ID":45368,"ELEMENT_SET_NO":999,"REV_AT_EPOCH":31537,"BSTAR":0.00066204,"MEAN_MOTION_DOT":9.597e-5,"MEAN_MOTION_DDOT":0},{"OBJECT_NAME":"STARLINK-1277","OBJECT_ID":"2020-019K","EPOCH":"2025-12-03T22:31:51.708288","MEAN_MOTION":15.06423393,"ECCENTRICITY":0.0001367,"INCLINATION":53.0538,"RA_OF_ASC_NODE":237.0877,"ARG_OF_PERICENTER":89.2871,"MEAN_ANOMALY":270.8274,"EPHEMERIS_TYPE":0,"CLASSIFICATION_TYPE":"U","NORAD_CAT_ID":45369,"ELEMENT_SET_NO":999,"REV_AT_EPOCH":31529,"BSTAR":0.00064349,"MEAN_MOTION_DOT":9.322e-5,"MEAN_MOTION_DDOT":0},{"OBJECT_NAME":"STARLINK-1281","OBJECT_ID":"2020-019L","EPOCH":"2025-12-03T22:26:26.027808","MEAN_MOTION":15.06405885,"ECCENTRICITY":0.0001321,"INCLINATION":53.054,"RA_OF_ASC_NODE":236.4794,"ARG_OF_PERICENTER":91.933,"MEAN_ANOMALY":268.181,"EPHEMERIS_TYPE":0,"CLASSIFICATION_TYPE":"U","NORAD_CAT_ID":45370,"ELEMENT_SET_NO":999,"REV_AT_EPOCH":31530,"BSTAR":7.9618e-5,"MEAN_MOTION_DOT":9.05e-6,"MEAN_MOTION_DDOT":0},{"OBJECT_NAME":"STARLINK-1300","OBJECT_ID":"2020-019Q","EPOCH":"2025-12-04T10:07:03.440640","MEAN_MOTION":15.06420405,"ECCENTRICITY":0.0002275,"INCLINATION":53.0535,"RA_OF_ASC_NODE":234.285,"ARG_OF_PERICENTER":84.51,"MEAN_ANOMALY":275.6148,"EPHEMERIS_TYPE":0,"CLASSIFICATION_TYPE":"U","NORAD_CAT_ID":45374,"ELEMENT_SET_NO":999,"REV_AT_EPOCH":31537,"BSTAR":0.00060639,"MEAN_MOTION_DOT":8.767e-5,"MEAN_MOTION_DDOT":0},{"OBJECT_NAME":"STARLINK-1302","OBJECT_ID":"2020-019R","EPOCH":"2025-12-04T02:30:36.929376","MEAN_MOTION":15.06439161,"ECCENTRICITY":0.0001326,"INCLINATION":53.0534,"RA_OF_ASC_NODE":235.7171,"ARG_OF_PERICENTER":114.4784,"MEAN_ANOMALY":245.6344,"EPHEMERIS_TYPE":0,"CLASSIFICATION_TYPE":"U","NORAD_CAT_ID":45375,"ELEMENT_SET_NO":999,"REV_AT_EPOCH":31532,"BSTAR":0.0020450922,"MEAN_MOTION_DOT":0.00030344,"MEAN_MOTION_DDOT":0},{"OBJECT_NAME":"STARLINK-1304","OBJECT_ID":"2020-019S","EPOCH":"2025-12-04T10:54:48.420576","MEAN_MOTION":15.06454425,"ECCENTRICITY":0.0001405,"INCLINATION":53.0536,"RA_OF_ASC_NODE":234.1405,"ARG_OF_PERICENTER":110.4655,"MEAN_ANOMALY":249.6485,"EPHEMERIS_TYPE":0,"CLASSIFICATION_TYPE":"U","NORAD_CAT_ID":45376,"ELEMENT_SET_NO":999,"REV_AT_EPOCH":31537,"BSTAR":0.0023294,"MEAN_MOTION_DOT":0.00034638,"MEAN_MOTION_DDOT":0},{"OBJECT_NAME":"STARLINK-1305","OBJECT_ID":"2020-019T","EPOCH":"2025-12-03T23:44:23.798112","MEAN_MOTION":15.36108478,"ECCENTRICITY":0.0008355,"INCLINATION":53.0515,"RA_OF_ASC_NODE":227.5189,"ARG_OF_PERICENTER":109.3327,"MEAN_ANOMALY":250.8579,"EPHEMERIS_TYPE":0,"CLASSIFICATION_TYPE":"U","NORAD_CAT_ID":45377,"ELEMENT_SET_NO":999,"REV_AT_EPOCH":31543,"BSTAR":0.003036,"MEAN_MOTION_DOT":0.00109642,"MEAN_MOTION_DDOT":0},{"OBJECT_NAME":"STARLINK-1319","OBJECT_ID":"2020-019V","EPOCH":"2025-12-04T10:15:45.404640","MEAN_MOTION":15.41042618,"ECCENTRICITY":0.000669,"INCLINATION":53.0526,"RA_OF_ASC_NODE":226.7521,"ARG_OF_PERICENTER":116.1158,"MEAN_ANOMALY":244.0535,"EPHEMERIS_TYPE":0,"CLASSIFICATION_TYPE":"U","NORAD_CAT_ID":45379,"ELEMENT_SET_NO":999,"REV_AT_EPOCH":31548,"BSTAR":0.0032917,"MEAN_MOTION_DOT":0.00140244,"MEAN_MOTION_DDOT":0},{"OBJECT_NAME":"STARLINK-1266","OBJECT_ID":"2020-019Z","EPOCH":"2025-12-04T01:50:47.533056","MEAN_MOTION":15.06413618,"ECCENTRICITY":0.00015087,"INCLINATION":53.0542,"RA_OF_ASC_NODE":215.8426,"ARG_OF_PERICENTER":92.9806,"MEAN_ANOMALY":267.1356,"EPHEMERIS_TYPE":0,"CLASSIFICATION_TYPE":"U","NORAD_CAT_ID":45383,"ELEMENT_SET_NO":999,"REV_AT_EPOCH":31559,"BSTAR":0.00076693367,"MEAN_MOTION_DOT":0.00011164,"MEAN_MOTION_DDOT":0},{"OBJECT_NAME":"STARLINK-1267","OBJECT_ID":"2020-019AA","EPOCH":"2025-12-04T09:27:22.953024","MEAN_MOTION":15.0639997,"ECCENTRICITY":0.0001729,"INCLINATION":53.0527,"RA_OF_ASC_NODE":215.0745,"ARG_OF_PERICENTER":92.0324,"MEAN_ANOMALY":268.0863,"EPHEMERIS_TYPE":0,"CLASSIFICATION_TYPE":"U","NORAD_CAT_ID":45384,"ELEMENT_SET_NO":999,"REV_AT_EPOCH":31563,"BSTAR":0.00022219,"MEAN_MOTION_DOT":3.029e-5,"MEAN_MOTION_DDOT":0},{"OBJECT_NAME":"STARLINK-1272","OBJECT_ID":"2020-019AC","EPOCH":"2025-12-04T17:02:35.393568","MEAN_MOTION":15.3925883,"ECCENTRICITY":0.0009209,"INCLINATION":53.0507,"RA_OF_ASC_NODE":203.6185,"ARG_OF_PERICENTER":121.1692,"MEAN_ANOMALY":239.0215,"EPHEMERIS_TYPE":0,"CLASSIFICATION_TYPE":"U","NORAD_CAT_ID":45386,"ELEMENT_SET_NO":999,"REV_AT_EPOCH":31582,"BSTAR":0.0025861,"MEAN_MOTION_DOT":0.00103354,"MEAN_MOTION_DDOT":0},{"OBJECT_NAME":"STARLINK-1274","OBJECT_ID":"2020-019AD","EPOCH":"2025-12-04T08:06:45.943200","MEAN_MOTION":15.33119514,"ECCENTRICITY":0.0005529,"INCLINATION":53.0344,"RA_OF_ASC_NODE":193.9973,"ARG_OF_PERICENTER":86.1561,"MEAN_ANOMALY":274.0071,"EPHEMERIS_TYPE":0,"CLASSIFICATION_TYPE":"U","NORAD_CAT_ID":45387,"ELEMENT_SET_NO":999,"REV_AT_EPOCH":31592,"BSTAR":0.0028897,"MEAN_MOTION_DOT":0.00094618,"MEAN_MOTION_DDOT":0},{"OBJECT_NAME":"STARLINK-1280","OBJECT_ID":"2020-019AE","EPOCH":"2025-12-03T22:35:16.850400","MEAN_MOTION":15.45724982,"ECCENTRICITY":0.0010125,"INCLINATION":53.052,"RA_OF_ASC_NODE":225.3257,"ARG_OF_PERICENTER":109.1683,"MEAN_ANOMALY":251.042,"EPHEMERIS_TYPE":0,"CLASSIFICATION_TYPE":"U","NORAD_CAT_ID":45388,"ELEMENT_SET_NO":999,"REV_AT_EPOCH":31544,"BSTAR":0.0024953,"MEAN_MOTION_DOT":0.00124293,"MEAN_MOTION_DDOT":0},{"OBJECT_NAME":"STARLINK-1283","OBJECT_ID":"2020-019AF","EPOCH":"2025-12-04T15:14:24.914112","MEAN_MOTION":15.35123947,"ECCENTRICITY":0.000982,"INCLINATION":53.051,"RA_OF_ASC_NODE":203.4888,"ARG_OF_PERICENTER":118.3054,"MEAN_ANOMALY":241.894,"EPHEMERIS_TYPE":0,"CLASSIFICATION_TYPE":"U","NORAD_CAT_ID":45389,"ELEMENT_SET_NO":999,"REV_AT_EPOCH":31582,"BSTAR":0.003517,"MEAN_MOTION_DOT":0.00123396,"MEAN_MOTION_DDOT":0},{"OBJECT_NAME":"STARLINK-1284","OBJECT_ID":"2020-019AG","EPOCH":"2025-12-04T01:56:06.251424","MEAN_MOTION":15.06419468,"ECCENTRICITY":0.00013761,"INCLINATION":53.0539,"RA_OF_ASC_NODE":215.8273,"ARG_OF_PERICENTER":85.1835,"MEAN_ANOMALY":274.9311,"EPHEMERIS_TYPE":0,"CLASSIFICATION_TYPE":"U","NORAD_CAT_ID":45390,"ELEMENT_SET_NO":999,"REV_AT_EPOCH":31559,"BSTAR":0.00061655231,"MEAN_MOTION_DOT":8.919e-5,"MEAN_MOTION_DDOT":0},{"OBJECT_NAME":"STARLINK-1297","OBJECT_ID":"2020-019AM","EPOCH":"2025-12-04T15:33:30.119328","MEAN_MOTION":15.0640811,"ECCENTRICITY":0.0001539,"INCLINATION":53.0537,"RA_OF_ASC_NODE":213.2765,"ARG_OF_PERICENTER":90.7962,"MEAN_ANOMALY":269.3203,"EPHEMERIS_TYPE":0,"CLASSIFICATION_TYPE":"U","NORAD_CAT_ID":45395,"ELEMENT_SET_NO":999,"REV_AT_EPOCH":31486,"BSTAR":0.00034014,"MEAN_MOTION_DOT":4.79e-5,"MEAN_MOTION_DDOT":0},{"OBJECT_NAME":"STARLINK-1307","OBJECT_ID":"2020-019AP","EPOCH":"2025-12-04T09:00:44.532288","MEAN_MOTION":15.06391678,"ECCENTRICITY":0.000155,"INCLINATION":53.0544,"RA_OF_ASC_NODE":214.5005,"ARG_OF_PERICENTER":98.037,"MEAN_ANOMALY":262.0795,"EPHEMERIS_TYPE":0,"CLASSIFICATION_TYPE":"U","NORAD_CAT_ID":45397,"ELEMENT_SET_NO":999,"REV_AT_EPOCH":31546,"BSTAR":0.0001048,"MEAN_MOTION_DOT":1.28e-5,"MEAN_MOTION_DDOT":0}]
